LEGION 1                
1 59625U 24081A   26188.48071654  .00002839  00000+0  14780-3 0  9996
2 59625  97.5009 266.1223 0007827 301.7323  58.3147 15.16809987120616
LEGION 2                
1 59626U 24081B   26188.51098975  .00002830  00000+0  14739-3 0  9991
2 59626  97.5010 266.2492 0009866 263.9048  96.1061 15.16788255120626
LEGION 3                
1 60452U 24146A   26188.49323563  .00002014  00000+0  11778-3 0  9997
2 60452  45.0018 281.6706 0008815 293.7294  66.2659 15.15623652105102
LEGION 4                
1 60453U 24146B   26188.49397572  .00002822  00000+0  15700-3 0  9995
2 60453  45.0022  13.5453 0011538  63.5933 296.6129 15.16200191103950
LEGION 5                
1 62900U 25025A   26188.03379691  .00002396  00000+0  13594-3 0  9998
2 62900  45.0000 194.9862 0008565 261.7469  98.2439 15.16039988 77500
LEGION 6                
1 62901U 25025B   26188.09688222  .00003302  00000+0  18416-3 0  9994
2 62901  45.0003 103.7701 0010538 235.5805 124.4077 15.15651413 78659
